     2              NAVIGATION DATA                         RINEX VERSION / TYPE
ephVote             Stanford GPS Lab    2021-03-24 17:54:26 PGM / RUN BY / DATE 
                                                            END OF HEADER       
 9 20  1  3 10  0  0.0 -1.237508840859E-04 -9.094947017729E-12  0.000000000000E+00
     7.500000000000E+01 -2.343750000000E+01  4.634478758928E-09  2.429661115538E-01
    -1.270323991776E-06  1.723060151562E-03  9.797513484955E-06  5.153535848618E+03
     4.680000000000E+05 -5.774199962616E-08  1.492104734460E+00 -5.215406417847E-08
     9.522007454974E-01  1.854062500000E+02  1.701470900521E+00 -8.035691861678E-09
    -1.725071856167E-10  1.000000000000E+00  2.086000000000E+03  0.000000000000E+00
     2.400000000000E+00  0.000000000000E+00  1.396983861923E-09  7.500000000000E+01
     4.608000000000E+05  4.000000000000E+00  2.521031746032E+02  2.000912698413E+02
 9 20  1  3 12  0  0.0 -1.238165423274E-04 -9.094947017729E-12  0.000000000000E+00
     7.600000000000E+01 -2.131250000000E+01  4.685195157184E-09  1.293587426972E+00
    -1.251697540283E-06  1.722982153296E-03  1.005269587040E-05  5.153534946442E+03
     4.752000000000E+05 -1.303851604462E-08  1.492046903845E+00 -4.097819328308E-08
     9.521993250039E-01  1.790000000000E+02  1.701115462630E+00 -8.054978379324E-09
    -1.957224383395E-10  1.000000000000E+00  2.086000000000E+03  0.000000000000E+00
     2.400000000000E+00  0.000000000000E+00  1.396983861923E-09  7.600000000000E+01
     4.680000000000E+05  4.000000000000E+00  2.241160714286E+02  1.711071428571E+02
 9 20  1  3 14  0  0.0 -1.238822005689E-04 -9.094947017729E-12  0.000000000000E+00
     9.500000000000E+01 -1.221875000000E+01  4.709124725375E-09  2.343232207998E+00
    -6.612390279770E-07  1.722401822917E-03  9.758397936821E-06  5.153537166595E+03
     4.824000000000E+05  9.313225746155E-09  1.491988776258E+00 -7.823109626770E-08
     9.521978752521E-01  1.821250000000E+02  1.701737432492E+00 -8.076050685642E-09
    -1.796503403006E-10  1.000000000000E+00  2.086000000000E+03  0.000000000000E+00
     3.400000000000E+00  0.000000000000E+00  1.396983861923E-09  9.500000000000E+01
     4.752000000000E+05  4.000000000000E+00  2.011293532338E+02  1.491144278607E+02
 9 20  1  3 15 59 44.0 -1.239473931491E-04 -9.094947017729E-12  0.000000000000E+00
     0.000000000000E+00 -1.143750000000E+01  4.855559396396E-09 -2.891908860252E+00
    -5.271285772324E-07  1.724224770442E-03  9.370967745781E-06  5.153533769608E+03
     4.895840000000E+05  6.519258022308E-08  1.491930082522E+00  5.401670932770E-08
     9.521969580025E-01  1.959375000000E+02  1.701626549153E+00 -8.095337203288E-09
    -6.214544575012E-11  1.000000000000E+00  2.086000000000E+03  0.000000000000E+00
     2.400000000000E+00  0.000000000000E+00  1.396983861923E-09  0.000000000000E+00
     4.844100000000E+05  4.000000000000E+00  8.912359550562E+01  7.304494382022E+01
 9 20  1  3 16  0  0.0 -1.239473931491E-04 -9.094947017729E-12  0.000000000000E+00
     1.050000000000E+02 -1.143750000000E+01  4.855559396396E-09 -2.889575181148E+00
    -5.271285772324E-07  1.724227564409E-03  9.370967745781E-06  5.153533767700E+03
     4.896000000000E+05  6.519258022308E-08  1.491929912824E+00  5.401670932770E-08
     9.521969462991E-01  1.959375000000E+02  1.701626800775E+00 -8.095694361023E-09
    -6.214544575012E-11  1.000000000000E+00  2.086000000000E+03  0.000000000000E+00
     3.400000000000E+00  0.000000000000E+00  1.396983861923E-09  1.050000000000E+02
     4.824000000000E+05  4.000000000000E+00  8.207317073171E+01  7.104878048780E+01
 9 20  1  3 17 59 44.0 -1.240130513906E-04 -9.094947017729E-12  0.000000000000E+00
     2.200000000000E+01 -1.500000000000E+01  4.816629203368E-09 -1.841257429203E+00
    -6.929039955139E-07  1.723966561258E-03  9.164214134216E-06  5.153534978867E+03
     4.967840000000E+05  7.450580596924E-09  1.491871766219E+00  4.097819328308E-08
     9.521967180839E-01  2.013125000000E+02  1.701243962428E+00 -8.074264896971E-09
    -3.464430021702E-11  1.000000000000E+00  2.086000000000E+03  0.000000000000E+00
     2.400000000000E+00  0.000000000000E+00  1.396983861923E-09  2.200000000000E+01
     4.895700000000E+05  4.000000000000E+00  9.405319148936E+01  8.503191489362E+01
 9 20  1  3 20  0  0.0 -1.240787096322E-04 -9.094947017729E-12  0.000000000000E+00
     2.300000000000E+01 -2.340625000000E+01  4.810200364153E-09 -7.892351956367E-01
    -1.274049282074E-06  1.723426510580E-03  9.436160326004E-06  5.153532896042E+03
     5.040000000000E+05 -1.862645149231E-08  1.491813397250E+00  3.166496753693E-08
     9.521964035565E-01  1.984375000000E+02  1.701823817804E+00 -8.091051310478E-09
    -3.392998474863E-11  1.000000000000E+00  2.086000000000E+03  0.000000000000E+00
     2.400000000000E+00  0.000000000000E+00  1.396983861923E-09  2.300000000000E+01
     4.968000000000E+05  4.000000000000E+00  1.670419161677E+02  1.540359281437E+02
 9 20  1  3 22  0  0.0 -1.241443678737E-04 -9.094947017729E-12  0.000000000000E+00
     2.400000000000E+01 -2.678125000000E+01  4.691981154134E-09  2.609581591891E-01
    -1.542270183563E-06  1.724213594571E-03  9.393319487572E-06  5.153534263611E+03
     5.112000000000E+05 -3.166496753693E-08  1.491755481786E+00 -4.470348358154E-08
     9.521959822361E-01  1.920937500000E+02  1.701898941574E+00 -8.086051102199E-09
    -9.500395729616E-11  1.000000000000E+00  2.086000000000E+03  0.000000000000E+00
     2.400000000000E+00  0.000000000000E+00  1.396983861923E-09  2.400000000000E+01
     5.040000000000E+05  4.000000000000E+00  2.320689655172E+02  2.020603448276E+02
10 20  1  3  0  0  0.0 -1.954315230250E-04 -1.386979420204E-11  0.000000000000E+00
     4.300000000000E+01 -5.096875000000E+01  4.438042005121E-09  2.851956304182E+00
    -2.585351467133E-06  5.262941936962E-03  6.895512342453E-06  5.153664718628E+03
     4.320000000000E+05 -6.146728992462E-08  4.578224892072E-01 -6.891787052155E-08
     9.647105588327E-01  2.486250000000E+02 -2.712936596196E+00 -7.981761043814E-09
     2.035799084918E-11  1.000000000000E+00  2.086000000000E+03  0.000000000000E+00
     2.400000000000E+00  0.000000000000E+00  1.862645149231E-09  4.300000000000E+01
     4.248000000000E+05  4.000000000000E+00  2.751418181818E+02  1.971381818182E+02
10 20  1  3  2  0  0.0 -1.955311745405E-04 -1.386979420204E-11  0.000000000000E+00
     4.400000000000E+01 -5.028125000000E+01  4.403040547169E-09 -2.381062990111E+00
    -2.665445208549E-06  5.262751830742E-03  6.809830665588E-06  5.153665012360E+03
     4.392000000000E+05 -1.862645149231E-08  4.577650330996E-01 -6.705522537231E-08
     9.647107387717E-01  2.510312500000E+02 -2.712917208143E+00 -7.979975255143E-09
     3.071556514086E-11  1.000000000000E+00  2.086000000000E+03  0.000000000000E+00
     2.400000000000E+00  0.000000000000E+00  1.862645149231E-09  4.400000000000E+01
     4.320000000000E+05  4.000000000000E+00  2.032561576355E+02  1.021379310345E+02
10 20  1  3  4  0  0.0 -1.956308260560E-04 -1.386979420204E-11  0.000000000000E+00
     7.300000000000E+01 -4.678125000000E+01  4.491258507516E-09 -1.331211990300E+00
    -2.510845661163E-06  5.263281054795E-03  6.191432476044E-06  5.153661533356E+03
     4.464000000000E+05  1.154839992523E-07  4.577080553663E-01 -1.564621925354E-07
     9.647106071090E-01  2.636875000000E+02 -2.712581822470E+00 -8.024262814183E-09
    -7.714607058635E-11  1.000000000000E+00  2.086000000000E+03  0.000000000000E+00
     2.400000000000E+00  0.000000000000E+00  1.862645149231E-09  7.300000000000E+01
     4.392000000000E+05  4.000000000000E+00  2.201000000000E+02  1.760863636364E+02
10 20  1  3  6  0  0.0 -1.957300119102E-04 -1.386979420204E-11  0.000000000000E+00
     9.600000000000E+01 -4.446875000000E+01  4.660194115791E-09 -2.810720978154E-01
    -2.466142177582E-06  5.263171391562E-03  6.081536412239E-06  5.153661022186E+03
     4.536000000000E+05  5.960464477539E-08  4.576500594419E-01  7.823109626770E-08
     9.647087682210E-01  2.635000000000E+02 -2.712533042929E+00 -8.247843555790E-09
    -1.621496113250E-10  1.000000000000E+00  2.086000000000E+03  0.000000000000E+00
     2.400000000000E+00  0.000000000000E+00  1.862645149231E-09  9.600000000000E+01
     4.464000000000E+05  4.000000000000E+00  1.931088082902E+02  1.580725388601E+02
10 20  1  3  8  0  0.0 -1.958296634257E-04 -1.386979420204E-11  0.000000000000E+00
     1.230000000000E+02 -4.068750000000E+01  4.724125350212E-09  7.690748152130E-01
    -1.987442374229E-06  5.263634491712E-03  6.066635251045E-06  5.153661985397E+03
     4.608000000000E+05  1.303851604462E-08  4.575905669524E-01  5.960464477539E-08
     9.647075452215E-01  2.627500000000E+02 -2.712490185281E+00 -8.261058391955E-09
    -1.682212928064E-10  1.000000000000E+00  2.086000000000E+03  0.000000000000E+00
     3.400000000000E+00  0.000000000000E+00  1.862645149231E-09  1.230000000000E+02
     4.536000000000E+05  4.000000000000E+00  1.110720720721E+02  9.702702702703E+01
10 20  1  3  9 59 44.0 -1.959288492799E-04 -1.386979420204E-11  0.000000000000E+00
     2.000000000000E+00 -4.243750000000E+01  4.720196615135E-09  1.816714593866E+00
    -2.123415470123E-06  5.264008417726E-03  6.720423698425E-06  5.153664243698E+03
     4.679840000000E+05 -1.247972249985E-07  4.575307145850E-01  1.378357410431E-07
     9.647067142840E-01  2.544375000000E+02 -2.712274559934E+00 -8.214985044244E-09
    -5.750239520557E-11  1.000000000000E+00  2.086000000000E+03  0.000000000000E+00
     2.400000000000E+00  0.000000000000E+00  1.862645149231E-09  2.000000000000E+00
     4.649700000000E+05  4.000000000000E+00  6.704477611940E+01  6.301492537313E+01
